NORAD_CAT_ID,OBJECT_NAME,OBJECT_TYPE,EPOCH,MEAN_MOTION,ECCENTRICITY,INCLINATION,RA_OF_ASC_NODE,ARG_OF_PERICENTER,MEAN_ANOMALY,BSTAR,MEAN_MOTION_DOT,MEAN_MOTION_DDOT,TLE_LINE0,TLE_LINE1,TLE_LINE2,SEMIMAJOR_AXIS,PERIOD,APOGEE,PERIGEE,DECAYED
49435.0,STARLINK-3117,PAYLOAD,2023-12-28 00:09:20,15.08845689,0.0001502,53.2148,212.5046,95.97,264.1463,-0.00016799,-2.961e-05,0.0,0 STARLINK-3117,1 49435U 21104AD  23362.00648784 -.00002961  00000-0 -16799-3 0  9991,2 49435  53.2148 212.5046 0001502  95.9700 264.1463 15.08845689118817,6917.863,95.437,540.767,538.689,0.0
49435.0,STARLINK-3117,PAYLOAD,2023-12-28 19:13:59,15.08833644,0.0001482,53.2153,208.9354,93.5691,266.547,0.00024564,3.623e-05,0.0,0 STARLINK-3117,1 49435U 21104AD  23362.80137920  .00003623  00000-0  24564-3 0  9997,2 49435  53.2153 208.9354 0001482  93.5691 266.5470 15.08833644118939,6917.9,95.438,540.79,538.74,0.0
49435.0,STARLINK-3117,PAYLOAD,2023-12-28 20:49:22,15.08834273,0.0001485,53.2153,208.638,93.8292,266.287,0.00024321,3.584e-05,0.0,0 STARLINK-3117,1 49435U 21104AD  23362.86761885  .00003584  00000-0  24321-3 0  9993,2 49435  53.2153 208.6380 0001485  93.8292 266.2870 15.08834273117869,6917.898,95.438,540.79,538.736,0.0
49435.0,STARLINK-3117,PAYLOAD,2023-12-29 00:00:08,15.08835413,0.0001498,53.2153,208.0434,94.4129,265.7034,0.00024128,3.554e-05,0.0,0 STARLINK-3117,1 49435U 21104AD  23363.00009899  .00003554  00000-0  24128-3 0  9992,2 49435  53.2153 208.0434 0001498  94.4129 265.7034 15.08835413117888,6917.894,95.438,540.796,538.723,0.0
49435.0,STARLINK-3117,PAYLOAD,2023-12-29 20:40:09,15.08836729,0.0001547,53.2156,204.1771,97.8296,262.2872,8.1647e-05,1.012e-05,0.0,0 STARLINK-3117,1 49435U 21104AD  23363.86122051  .00001012  00000-0  81647-4 0  9999,2 49435  53.2156 204.1771 0001547  97.8296 262.2872 15.08836729118018,6917.89,95.438,540.826,538.685,0.0
49435.0,STARLINK-3117,PAYLOAD,2023-12-30 12:34:00,15.0883798,0.0001536,53.2156,201.2035,98.3403,261.7764,7.1131e-05,8.44e-06,0.0,0 STARLINK-3117,1 49435U 21104AD  23364.52362118  .00000844  00000-0  71131-4 0  9992,2 49435  53.2156 201.2035 0001536  98.3403 261.7764 15.08837980118118,6917.887,95.438,540.814,538.689,0.0
49435.0,STARLINK-3117,PAYLOAD,2023-12-30 18:55:33,15.08841053,0.0001541,53.2155,200.0149,99.7218,260.3949,0.0001012,1.323e-05,0.0,0 STARLINK-3117,1 49435U 21104AD  23364.78857945  .00001323  00000-0  10120-3 0  9990,2 49435  53.2155 200.0149 0001541  99.7218 260.3949 15.08841053118155,6917.877,95.437,540.808,538.676,0.0
49435.0,STARLINK-3117,PAYLOAD,2023-12-31 18:46:20,15.08840595,0.0001445,53.2162,195.5556,97.3168,262.7989,0.00011093,1.478e-05,0.0,0 STARLINK-3117,1 49435U 21104AD  23365.78218284  .00001478  00000-0  11093-3 0  9999,2 49435  53.2162 195.5556 0001445  97.3168 262.7989 15.08840595119380,6917.879,95.438,540.743,538.744,0.0
49435.0,STARLINK-3117,PAYLOAD,2023-12-31 21:57:06,15.08840448,0.0001429,53.2161,194.9609,94.9697,265.1458,9.9848e-05,1.302e-05,0.0,0 STARLINK-3117,1 49435U 21104AD  23365.91466264  .00001302  00000-0  99848-4 0  9998,2 49435  53.2161 194.9609 0001429  94.9697 265.1458 15.08840448118321,6917.879,95.438,540.733,538.755,0.0
49435.0,STARLINK-3117,PAYLOAD,2024-01-01 12:15:34,15.08843588,0.0001443,53.2161,192.2843,90.3731,269.7427,0.00011023,1.467e-05,0.0,0 STARLINK-3117,1 49435U 21104AD  24001.51082095  .00001467  00000-0  11023-3 0  9998,2 49435  53.2161 192.2843 0001443  90.3731 269.7427 15.08843588118411,6917.869,95.437,540.733,538.736,0.0
49435.0,STARLINK-3117,PAYLOAD,2024-01-01 20:12:30,15.08845502,0.000146,53.2163,190.7977,87.9308,272.1852,0.00011432,1.532e-05,0.0,0 STARLINK-3117,1 49435U 21104AD  24001.84201896  .00001532  00000-0  11432-3 0  9993,2 49435  53.2163 190.7977 0001460  87.9308 272.1852 15.08845502119548,6917.864,95.437,540.739,538.719,0.0
49435.0,STARLINK-3117,PAYLOAD,2024-01-02 18:27:54,15.08841204,0.0001467,53.2165,186.6347,88.0744,272.0416,6.0786e-05,6.8e-06,0.0,0 STARLINK-3117,1 49435U 21104AD  24002.76938216  .00000680  00000-0  60786-4 0  9998,2 49435  53.2165 186.6347 0001467  88.0744 272.0416 15.08841204119683,6917.877,95.437,540.757,538.727,0.0
49435.0,STARLINK-3117,PAYLOAD,2024-01-03 11:57:08,15.08843004,0.0001556,53.217,183.3644,81.0241,279.0927,5.5443e-05,5.95e-06,0.0,0 STARLINK-3117,1 49435U 21104AD  24003.49802064  .00000595  00000-0  55443-4 0  9999,2 49435  53.2170 183.3644 0001556  81.0241 279.0927 15.08843004118714,6917.871,95.437,540.813,538.66,0.0
49435.0,STARLINK-3117,PAYLOAD,2024-01-03 18:18:37,15.08896205,0.0001315,53.2166,182.1731,84.77,275.3442,0.00047806,7.34e-05,0.0,0 STARLINK-3117,1 49435U 21104AD  24003.76293148  .00007340  00000-0  47806-3 0  9994,2 49435  53.2166 182.1731 0001315  84.7700 275.3442 15.08896205119832,6917.709,95.434,540.483,538.664,0.0
49435.0,STARLINK-3117,PAYLOAD,2024-01-04 11:47:55,15.08834278,0.0001319,53.216,178.899,98.176,261.9382,1.8176e-05,1e-08,0.0,0 STARLINK-3117,1 49435U 21104AD  24004.49161865  .00000001  00000-0  18176-4 0  9991,2 49435  53.2160 178.8990 0001319  98.1760 261.9382 15.08834278119942,6917.898,95.438,540.675,538.85,0.0
49435.0,STARLINK-3117,PAYLOAD,2024-01-04 16:34:05,15.08835802,0.0001328,53.2162,178.0086,91.1632,268.9513,2.2452e-05,6.9e-07,0.0,0 STARLINK-3117,1 49435U 21104AD  24004.69033835  .00000069  00000-0  22452-4 0  9994,2 49435  53.2162 178.0086 0001328  91.1632 268.9513 15.08835802118893,6917.893,95.438,540.677,538.84,0.0
49435.0,STARLINK-3117,PAYLOAD,2024-01-05 14:49:29,15.08850273,0.0001165,53.2161,173.8465,91.0605,269.0521,-0.00029085,-4.915e-05,0.0,0 STARLINK-3117,1 49435U 21104AD  24005.61770161 -.00004915  00000-0 -29085-3 0  9991,2 49435  53.2161 173.8465 0001165  91.0605 269.0521 15.08850273119031,6917.849,95.437,540.52,538.908,0.0
49435.0,STARLINK-3117,PAYLOAD,2024-01-05 18:00:15,15.08849007,0.0001208,53.2167,173.2521,93.166,266.9471,-0.00028414,-4.808e-05,0.0,0 STARLINK-3117,1 49435U 21104AD  24005.75018164 -.00004808  00000-0 -28414-3 0  9990,2 49435  53.2167 173.2521 0001208  93.1660 266.9471 15.08849007120132,6917.853,95.437,540.554,538.882,0.0
49435.0,STARLINK-3117,PAYLOAD,2024-01-06 09:54:07,15.08831038,0.0001192,53.2162,170.2773,83.6181,276.4947,8.9691e-05,1.14e-05,0.0,0 STARLINK-3117,1 49435U 21104AD  24006.41258454  .00001140  00000-0  89691-4 0  9991,2 49435  53.2162 170.2773 0001192  83.6181 276.4947 15.08831038120237,6917.908,95.438,540.597,538.948,0.0
49435.0,STARLINK-3117,PAYLOAD,2024-01-06 19:26:25,15.0883748,0.0001214,53.2166,168.4939,85.5008,274.6122,0.00013928,1.929e-05,0.0,0 STARLINK-3117,1 49435U 21104AD  24006.81002157  .00001929  00000-0  13928-3 0  9996,2 49435  53.2166 168.4939 0001214  85.5008 274.6122 15.08837480119216,6917.888,95.438,540.593,538.913,0.0
49435.0,STARLINK-3117,PAYLOAD,2024-01-07 11:20:17,15.08831966,0.0001213,53.217,165.5201,85.1069,275.0062,0.00010926,1.451e-05,0.0,0 STARLINK-3117,1 49435U 21104AD  24007.47242984  .00001451  00000-0  10926-3 0  9998,2 49435  53.2170 165.5201 0001213  85.1069 275.0062 15.08831966120395,6917.905,95.438,540.609,538.931,0.0
49435.0,STARLINK-3117,PAYLOAD,2024-01-07 14:31:04,15.08835562,0.000121,53.2166,164.9251,95.6301,264.4829,0.00013854,1.917e-05,0.0,0 STARLINK-3117,1 49435U 21104AD  24007.60490747  .00001917  00000-0  13854-3 0  9995,2 49435  53.2166 164.9251 0001210  95.6301 264.4829 15.08835562119331,6917.894,95.438,540.596,538.922,0.0
49435.0,STARLINK-3117,PAYLOAD,2024-01-07 17:41:50,15.08837457,0.0001203,53.2169,164.3306,91.0696,269.0434,0.00015299,2.148e-05,0.0,0 STARLINK-3117,1 49435U 21104AD  24007.73738704  .00002148  00000-0  15299-3 0  9999,2 49435  53.2169 164.3306 0001203  91.0696 269.0434 15.08837457119358,6917.888,95.438,540.585,538.921,0.0
49435.0,STARLINK-3117,PAYLOAD,2024-01-08 14:21:50,15.0884441,0.0001217,53.217,160.4644,90.5279,269.5852,9.0726e-05,1.157e-05,0.0,0 STARLINK-3117,1 49435U 21104AD  24008.59850481  .00001157  00000-0  90726-4 0  9999,2 49435  53.2170 160.4644 0001217  90.5279 269.5852 15.08844410119488,6917.867,95.437,540.574,538.89,0.0
49435.0,STARLINK-3117,PAYLOAD,2024-01-08 17:32:36,15.08847277,0.0001233,53.2171,159.8698,87.6036,272.5098,0.0001128,1.508e-05,0.0,0 STARLINK-3117,1 49435U 21104AD  24008.73098234  .00001508  00000-0  11280-3 0  9992,2 49435  53.2171 159.8698 0001233  87.6036 272.5098 15.08847277119509,6917.858,95.437,540.576,538.87,0.0
49435.0,STARLINK-3117,PAYLOAD,2024-01-09 09:26:28,15.08842523,0.0001259,53.2173,156.9011,87.7477,272.3659,8.5349e-05,1.071e-05,0.0,0 STARLINK-3117,1 49435U 21104AD  24009.39338609  .00001071  00000-0  85349-4 0  9991,2 49435  53.2173 156.9011 0001259  87.7477 272.3659 15.08842523120687,6917.873,95.437,540.609,538.867,0.0
49435.0,STARLINK-3117,PAYLOAD,2024-01-09 14:12:38,15.08840407,0.0001282,53.2174,156.0068,84.527,275.5868,6.2201e-05,7.02e-06,0.0,0 STARLINK-3117,1 49435U 21104AD  24009.59210853  .00000702  00000-0  62201-4 0  9995,2 49435  53.2174 156.0068 0001282  84.5270 275.5868 15.08840407119632,6917.879,95.438,540.631,538.857,0.0
49435.0,STARLINK-3117,PAYLOAD,2024-01-09 17:23:24,15.08843131,0.00013,53.2172,155.4117,78.6455,281.4683,8.056e-05,9.95e-06,0.0,0 STARLINK-3117,1 49435U 21104AD  24009.72458632  .00000995  00000-0  80560-4 0  9991,2 49435  53.2172 155.4117 0001300  78.6455 281.4683 15.08843131119658,6917.871,95.437,540.635,538.836,0.0
49435.0,STARLINK-3117,PAYLOAD,2024-01-10 09:17:15,15.08841216,0.000168,53.2178,152.4399,62.1746,297.9416,5.0351e-05,5.13e-06,0.0,0 STARLINK-3117,1 49435U 21104AD  24010.38698948  .00000513  00000-0  50351-4 0  9992,2 49435  53.2178 152.4399 0001680  62.1746 297.9416 15.08841216119754,6917.877,95.437,540.904,538.579,0.0
49435.0,STARLINK-3117,PAYLOAD,2024-01-10 18:49:34,15.08852098,0.000139,53.2173,150.6534,79.1699,280.9449,3.3726e-05,2.49e-06,0.0,0 STARLINK-3117,1 49435U 21104AD  24010.78442131  .00000249  00000-0  33726-4 0  9990,2 49435  53.2173 150.6534 0001390  79.1699 280.9449 15.08852098120898,6917.843,95.437,540.67,538.747,0.0
